[{"OBJECT_NAME":"QIANFAN-104","OBJECT_ID":"2025-233P","EPOCH":"2026-03-09T22:37:03.406656","MEAN_MOTION":13.51010539,"ECCENTRICITY":0.00021082,"INCLINATION":88.9948,"RA_OF_ASC_NODE":53.1192,"ARG_OF_PERICENTER":85.1349,"MEAN_ANOMALY":275.0043,"EPHEMERIS_TYPE":0,"CLASSIFICATION_TYPE":"U","NORAD_CAT_ID":66046,"ELEMENT_SET_NO":999,"REV_AT_EPOCH":1983,"BSTAR":7.1555693e-5,"MEAN_MOTION_DOT":5.8e-7,"MEAN_MOTION_DDOT":0},{"OBJECT_NAME":"CZ-4B DEB","OBJECT_ID":"2011-043D","EPOCH":"2026-03-08T12:35:01.081248","MEAN_MOTION":13.42316105,"ECCENTRICITY":0.0264063,"INCLINATION":99.5263,"RA_OF_ASC_NODE":172.3238,"ARG_OF_PERICENTER":5.7929,"MEAN_ANOMALY":55.6134,"EPHEMERIS_TYPE":0,"CLASSIFICATION_TYPE":"U","NORAD_CAT_ID":38314,"ELEMENT_SET_NO":999,"REV_AT_EPOCH":63464,"BSTAR":0.00035567044,"MEAN_MOTION_DOT":2.05e-6,"MEAN_MOTION_DDOT":0}]
